ONEWEB-0414             
1 50491U 21132Y   26019.98362179 -.00000003  00000+0 -41138-4 0  9996
2 50491  87.9192   4.8574 0001930  80.3799 279.7551 13.18685385202091
ONEWEB-0417             
1 50492U 21132Z   26019.99186402 -.00000030  00000+0 -10979-3 0  9999
2 50492  87.9185   4.8880 0001973  88.6097 271.5261 13.18685513202072
ONEWEB-0418             
1 50493U 21132AA  26019.92575527  .00000011  00000+0 -42165-5 0  9995
2 50493  87.9191   4.8867 0002195  93.2046 266.9338 13.18685431202126
ONEWEB-0419             
1 50494U 21132AB  26019.94403392  .00000008  00000+0 -13641-4 0  9990
2 50494  87.9191   4.8829 0001857  95.5860 264.5484 13.18685747202045
ONEWEB-0420             
1 50495U 21132AC  26019.98527359 -.00000018  00000+0 -78009-4 0  9996
2 50495  87.9194   4.8874 0001637  82.5634 277.5684 13.18685980202045
ONEWEB-0421             
1 50496U 21132AD  26019.97867878  .00000042  00000+0  73919-4 0  9999
2 50496  87.9193   4.8809 0001965  77.4867 282.6485 13.18686054202081
ONEWEB-0424             
1 50497U 21132AE  26019.93908549 -.00000015  00000+0 -70349-4 0  9993
2 50497  87.9190   4.8839 0001735  97.9677 262.1652 13.18685783202103
ONEWEB-0426             
1 50498U 21132AF  26019.97537701 -.00000003  00000+0 -40091-4 0  9994
2 50498  87.9191   4.8686 0002456  79.3472 280.7937 13.18685812202052
